{
 "type": "FeatureCollection",
 "name": "ZAG structures and sites",
 "features": [
  {
   "type": "Feature",
   "geometry": {
    "type": "Point",
    "coordinates": [
     14.53642,
     46.0856
    ]
   },
   "properties": {
    "id": "tomacevo",
    "name": "Tomačevo Bridge",
    "name_sl": "Most čez Savo v Tomačevem",
    "sector": "AI, data and monitoring",
    "sector_key": "ai",
    "evidence": "ZAG work documented",
    "evidence_key": "doc",
    "role": "Bridge weigh-in-motion and structural health monitoring",
    "years": "2023–2025",
    "client": "",
    "location": "Ljubljana",
    "region": "Osrednjeslovenska",
    "region_code": "SI041",
    "built": "1982",
    "position_accuracy": "Derived from river alignment",
    "description": "Bridge weigh-in-motion and structural health monitoring.\n\nYears: 2023–2025\nBuilt: 1982\nSector: AI, data and monitoring\nLocation: Ljubljana\nPosition: Derived from river alignment",
    "_umap_options": {
     "color": "#7B4BD8",
     "fillColor": "#7B4BD8",
     "weight": 2,
     "opacity": 1,
     "fillOpacity": 1,
     "iconClass": "Circle"
    }
   }
  },
  {
   "type": "Feature",
   "geometry": {
    "type": "Point",
    "coordinates": [
     14.24,
     45.821
    ]
   },
   "properties": {
    "id": "ravbarkomanda",
    "name": "Ravbarkomanda Viaduct",
    "name_sl": "Viadukt Ravbarkomanda",
    "sector": "AI, data and monitoring",
    "sector_key": "ai",
    "evidence": "ZAG work documented",
    "evidence_key": "doc",
    "role": "Long-term structural health monitoring and bridge weigh-in-motion",
    "years": "2023–2024",
    "client": "DARS",
    "location": "A1 between Planina and Postojna",
    "region": "Primorsko-notranjska",
    "region_code": "SI038",
    "built": "1972",
    "position_accuracy": "Approximate, from the road alignment",
    "description": "Long-term structural health monitoring and bridge weigh-in-motion.\n\nYears: 2023–2024\nClient: DARS\nBuilt: 1972\nSector: AI, data and monitoring\nLocation: A1 between Planina and Postojna\nPosition: Approximate, from the road alignment",
    "_umap_options": {
     "color": "#7B4BD8",
     "fillColor": "#7B4BD8",
     "weight": 2,
     "opacity": 1,
     "fillOpacity": 1,
     "iconClass": "Circle"
    }
   }
  },
  {
   "type": "Feature",
   "geometry": {
    "type": "Point",
    "coordinates": [
     14.94472,
     46.25111
    ]
   },
   "properties": {
    "id": "vransko",
    "name": "Vransko Bridge",
    "name_sl": "Most pri Vranskem",
    "sector": "AI, data and monitoring",
    "sector_key": "ai",
    "evidence": "ZAG work documented",
    "evidence_key": "doc",
    "role": "Bridge weigh-in-motion and direct measurement of dynamic amplification",
    "years": "2006–2009",
    "client": "",
    "location": "Vransko",
    "region": "Savinjska",
    "region_code": "SI034",
    "built": "",
    "position_accuracy": "Locality centre, approximate",
    "description": "Bridge weigh-in-motion and direct measurement of dynamic amplification.\n\nYears: 2006–2009\nSector: AI, data and monitoring\nLocation: Vransko\nPosition: Locality centre, approximate",
    "_umap_options": {
     "color": "#7B4BD8",
     "fillColor": "#7B4BD8",
     "weight": 2,
     "opacity": 1,
     "fillOpacity": 1,
     "iconClass": "Circle"
    }
   }
  },
  {
   "type": "Feature",
   "geometry": {
    "type": "Point",
    "coordinates": [
     15.152007,
     45.801095
    ]
   },
   "properties": {
    "id": "nm_brv",
    "name": "Novo Mesto Stress Ribbon Footbridge",
    "name_sl": "Brv čez Krko, Novo mesto",
    "sector": "Bridges and viaducts",
    "sector_key": "bridge",
    "evidence": "ZAG work documented",
    "evidence_key": "doc",
    "role": "Static and dynamic load testing, and validation of the finite element model",
    "years": "2023",
    "client": "Mestna občina Novo mesto",
    "location": "Novo mesto",
    "region": "Jugovzhodna Slovenija",
    "region_code": "SI037",
    "built": "2023",
    "position_accuracy": "Published coordinate",
    "description": "Static and dynamic load testing, and validation of the finite element model.\n\nYears: 2023\nClient: Mestna občina Novo mesto\nBuilt: 2023\nSector: Bridges and viaducts\nLocation: Novo mesto\nPosition: Published coordinate",
    "_umap_options": {
     "color": "#1273D4",
     "fillColor": "#1273D4",
     "weight": 2,
     "opacity": 1,
     "fillOpacity": 1,
     "iconClass": "Circle"
    }
   }
  },
  {
   "type": "Feature",
   "geometry": {
    "type": "Point",
    "coordinates": [
     14.848964,
     46.469742
    ]
   },
   "properties": {
    "id": "crna",
    "name": "Črna na Koroškem Bridge",
    "name_sl": "Most v Črni na Koroškem",
    "sector": "Materials and circularity",
    "sector_key": "mat",
    "evidence": "ZAG work documented",
    "evidence_key": "doc",
    "role": "Structural reuse of salvaged precast girders",
    "years": "2023–2024",
    "client": "Direkcija RS za infrastrukturo",
    "location": "Črna na Koroškem",
    "region": "Koroška",
    "region_code": "SI033",
    "built": "2024",
    "position_accuracy": "Locality centre, approximate",
    "description": "Structural reuse of salvaged precast girders.\n\nYears: 2023–2024\nClient: Direkcija RS za infrastrukturo\nBuilt: 2024\nSector: Materials and circularity\nLocation: Črna na Koroškem\nPosition: Locality centre, approximate",
    "_umap_options": {
     "color": "#1E9A57",
     "fillColor": "#1E9A57",
     "weight": 2,
     "opacity": 1,
     "fillOpacity": 1,
     "iconClass": "Circle"
    }
   }
  },
  {
   "type": "Feature",
   "geometry": {
    "type": "Point",
    "coordinates": [
     14.30524,
     45.95555
    ]
   },
   "properties": {
    "id": "verd",
    "name": "Verd Viaduct",
    "name_sl": "Viadukt Verd",
    "sector": "Materials and circularity",
    "sector_key": "mat",
    "evidence": "ZAG work documented",
    "evidence_key": "doc",
    "role": "First Slovenian application of an expansive grout additive",
    "years": "",
    "client": "DARS",
    "location": "Verd, Vrhnika",
    "region": "Osrednjeslovenska",
    "region_code": "SI041",
    "built": "",
    "position_accuracy": "Published coordinate",
    "description": "First Slovenian application of an expansive grout additive.\n\nClient: DARS\nSector: Materials and circularity\nLocation: Verd, Vrhnika\nPosition: Published coordinate",
    "_umap_options": {
     "color": "#1E9A57",
     "fillColor": "#1E9A57",
     "weight": 2,
     "opacity": 1,
     "fillOpacity": 1,
     "iconClass": "Circle"
    }
   }
  },
  {
   "type": "Feature",
   "geometry": {
    "type": "Point",
    "coordinates": [
     13.645492,
     45.969497
    ]
   },
   "properties": {
    "id": "he_solkan",
    "name": "HE Solkan",
    "name_sl": "Hidroelektrarna Solkan",
    "sector": "Hydropower and energy",
    "sector_key": "energy",
    "evidence": "ZAG work documented",
    "evidence_key": "doc",
    "role": "Expansive and non-shrink cement grouts",
    "years": "",
    "client": "Soške elektrarne Nova Gorica",
    "location": "Solkan, Nova Gorica",
    "region": "Goriška",
    "region_code": "SI043",
    "built": "1984",
    "position_accuracy": "Locality centre, approximate",
    "description": "Expansive and non-shrink cement grouts.\n\nClient: Soške elektrarne Nova Gorica\nBuilt: 1984\nSector: Hydropower and energy\nLocation: Solkan, Nova Gorica\nPosition: Locality centre, approximate",
    "_umap_options": {
     "color": "#0E93A6",
     "fillColor": "#0E93A6",
     "weight": 2,
     "opacity": 1,
     "fillOpacity": 1,
     "iconClass": "Circle"
    }
   }
  },
  {
   "type": "Feature",
   "geometry": {
    "type": "Point",
    "coordinates": [
     15.7868,
     46.4479
    ]
   },
   "properties": {
    "id": "he_zlatolicje",
    "name": "HE Zlatoličje",
    "name_sl": "Hidroelektrarna Zlatoličje",
    "sector": "Hydropower and energy",
    "sector_key": "energy",
    "evidence": "ZAG work documented",
    "evidence_key": "doc",
    "role": "Expansive and non-shrink cement grouts; third party quality control of the upgrade",
    "years": "2006–2009",
    "client": "Dravske elektrarne Maribor",
    "location": "Zlatoličje, Starše",
    "region": "Podravska",
    "region_code": "SI032",
    "built": "1969",
    "position_accuracy": "Published coordinate",
    "description": "Expansive and non-shrink cement grouts; third party quality control of the upgrade.\n\nYears: 2006–2009\nClient: Dravske elektrarne Maribor\nBuilt: 1969\nSector: Hydropower and energy\nLocation: Zlatoličje, Starše\nPosition: Published coordinate",
    "_umap_options": {
     "color": "#0E93A6",
     "fillColor": "#0E93A6",
     "weight": 2,
     "opacity": 1,
     "fillOpacity": 1,
     "iconClass": "Circle"
    }
   }
  },
  {
   "type": "Feature",
   "geometry": {
    "type": "Point",
    "coordinates": [
     15.2756,
     46.5876
    ]
   },
   "properties": {
    "id": "he_vuhred",
    "name": "HE Vuhred",
    "name_sl": "Hidroelektrarna Vuhred",
    "sector": "Hydropower and energy",
    "sector_key": "energy",
    "evidence": "ZAG work documented",
    "evidence_key": "doc",
    "role": "Expansive and non-shrink cement grouts",
    "years": "",
    "client": "Dravske elektrarne Maribor",
    "location": "Vuhred, Radlje ob Dravi",
    "region": "Koroška",
    "region_code": "SI033",
    "built": "1956",
    "position_accuracy": "Published coordinate",
    "description": "Expansive and non-shrink cement grouts.\n\nClient: Dravske elektrarne Maribor\nBuilt: 1956\nSector: Hydropower and energy\nLocation: Vuhred, Radlje ob Dravi\nPosition: Published coordinate",
    "_umap_options": {
     "color": "#0E93A6",
     "fillColor": "#0E93A6",
     "weight": 2,
     "opacity": 1,
     "fillOpacity": 1,
     "iconClass": "Circle"
    }
   }
  },
  {
   "type": "Feature",
   "geometry": {
    "type": "Point",
    "coordinates": [
     13.610151,
     45.537465
    ]
   },
   "properties": {
    "id": "strunjan",
    "name": "Sveti Križ Bay Cliff",
    "name_sl": "Zaliv Sv. Križa v Strunjanu",
    "sector": "Geotechnics and ground",
    "sector_key": "geo",
    "evidence": "ZAG work documented",
    "evidence_key": "doc",
    "role": "Rockfall investigation and slope characterisation",
    "years": "2019–2021",
    "client": "",
    "location": "Strunjan, Piran",
    "region": "Obalno-kraška",
    "region_code": "SI044",
    "built": "",
    "position_accuracy": "Published coordinate",
    "description": "Rockfall investigation and slope characterisation.\n\nYears: 2019–2021\nSector: Geotechnics and ground\nLocation: Strunjan, Piran\nPosition: Published coordinate",
    "_umap_options": {
     "color": "#96602A",
     "fillColor": "#96602A",
     "weight": 2,
     "opacity": 1,
     "fillOpacity": 1,
     "iconClass": "Circle"
    }
   }
  },
  {
   "type": "Feature",
   "geometry": {
    "type": "Point",
    "coordinates": [
     14.830746,
     46.049342
    ]
   },
   "properties": {
    "id": "sitarjevec",
    "name": "Sitarjevec Mine",
    "name_sl": "Rudnik Sitarjevec v Litiji",
    "sector": "Geotechnics and ground",
    "sector_key": "geo",
    "evidence": "ZAG work documented",
    "evidence_key": "doc",
    "role": "Characterisation of mine ochre as a pigment",
    "years": "2021",
    "client": "",
    "location": "Litija",
    "region": "Zasavska",
    "region_code": "SI035",
    "built": "",
    "position_accuracy": "Street address, approximate",
    "description": "Characterisation of mine ochre as a pigment.\n\nYears: 2021\nSector: Geotechnics and ground\nLocation: Litija\nPosition: Street address, approximate",
    "_umap_options": {
     "color": "#96602A",
     "fillColor": "#96602A",
     "weight": 2,
     "opacity": 1,
     "fillOpacity": 1,
     "iconClass": "Circle"
    }
   }
  },
  {
   "type": "Feature",
   "geometry": {
    "type": "Point",
    "coordinates": [
     14.5128,
     46.0657
    ]
   },
   "properties": {
    "id": "zag",
    "name": "ZAG",
    "name_sl": "Zavod za gradbeništvo Slovenije",
    "sector": "Institutions and laboratories",
    "sector_key": "inst",
    "evidence": "ZAG premises or named partner",
    "evidence_key": "inst",
    "role": "Slovenian National Building and Civil Engineering Institute",
    "years": "founded 1949",
    "client": "",
    "location": "Dimičeva ulica 12, Ljubljana",
    "region": "Osrednjeslovenska",
    "region_code": "SI041",
    "built": "",
    "position_accuracy": "Street address, approximate",
    "description": "Slovenian National Building and Civil Engineering Institute.\n\nYears: founded 1949\nSector: Institutions and laboratories\nLocation: Dimičeva ulica 12, Ljubljana\nPosition: Street address, approximate",
    "_umap_options": {
     "color": "#60687A",
     "fillColor": "#60687A",
     "weight": 2,
     "opacity": 1,
     "fillOpacity": 0.25,
     "iconClass": "Circle"
    }
   }
  },
  {
   "type": "Feature",
   "geometry": {
    "type": "Point",
    "coordinates": [
     14.24163,
     45.91795
    ]
   },
   "properties": {
    "id": "zag_logatec",
    "name": "ZAG Fire Laboratory Logatec",
    "name_sl": "Požarni laboratorij ZAG Logatec",
    "sector": "Fire safety",
    "sector_key": "fire",
    "evidence": "ZAG premises or named partner",
    "evidence_key": "inst",
    "role": "Fire resistance and reaction to fire testing",
    "years": "2022 onwards",
    "client": "",
    "location": "Obrtna cona 35, Logatec",
    "region": "Osrednjeslovenska",
    "region_code": "SI041",
    "built": "2022",
    "position_accuracy": "Street address, approximate",
    "description": "Fire resistance and reaction to fire testing.\n\nYears: 2022 onwards\nBuilt: 2022\nSector: Fire safety\nLocation: Obrtna cona 35, Logatec\nPosition: Street address, approximate",
    "_umap_options": {
     "color": "#D9453A",
     "fillColor": "#D9453A",
     "weight": 2,
     "opacity": 1,
     "fillOpacity": 0.25,
     "iconClass": "Circle"
    }
   }
  },
  {
   "type": "Feature",
   "geometry": {
    "type": "Point",
    "coordinates": [
     14.4907,
     46.1216
    ]
   },
   "properties": {
    "id": "zag_gameljne",
    "name": "ZAG Fire Laboratory Gameljne",
    "name_sl": "Požarni laboratorij ZAG Gameljne",
    "sector": "Fire safety",
    "sector_key": "fire",
    "evidence": "ZAG premises or named partner",
    "evidence_key": "inst",
    "role": "Original ZAG fire testing facility, until Logatec opened",
    "years": "1986 onwards",
    "client": "",
    "location": "Zgornje Gameljne, Ljubljana",
    "region": "Osrednjeslovenska",
    "region_code": "SI041",
    "built": "1986",
    "position_accuracy": "Locality centre, approximate",
    "description": "Original ZAG fire testing facility, until Logatec opened.\n\nYears: 1986 onwards\nBuilt: 1986\nSector: Fire safety\nLocation: Zgornje Gameljne, Ljubljana\nPosition: Locality centre, approximate",
    "_umap_options": {
     "color": "#D9453A",
     "fillColor": "#D9453A",
     "weight": 2,
     "opacity": 1,
     "fillOpacity": 0.25,
     "iconClass": "Circle"
    }
   }
  },
  {
   "type": "Feature",
   "geometry": {
    "type": "Point",
    "coordinates": [
     15.70206,
     46.48223
    ]
   },
   "properties": {
    "id": "zag_maribor",
    "name": "ZAG Maribor Unit",
    "name_sl": "ZAG enota Maribor, Dobrovce",
    "sector": "Institutions and laboratories",
    "sector_key": "inst",
    "evidence": "ZAG premises or named partner",
    "evidence_key": "inst",
    "role": "ZAG regional unit for north-east Slovenia",
    "years": "2021 onwards",
    "client": "",
    "location": "Dobrovce, Miklavž na Dravskem polju",
    "region": "Podravska",
    "region_code": "SI032",
    "built": "2021",
    "position_accuracy": "Street address, approximate",
    "description": "ZAG regional unit for north-east Slovenia.\n\nYears: 2021 onwards\nBuilt: 2021\nSector: Institutions and laboratories\nLocation: Dobrovce, Miklavž na Dravskem polju\nPosition: Street address, approximate",
    "_umap_options": {
     "color": "#60687A",
     "fillColor": "#60687A",
     "weight": 2,
     "opacity": 1,
     "fillOpacity": 0.25,
     "iconClass": "Circle"
    }
   }
  },
  {
   "type": "Feature",
   "geometry": {
    "type": "Point",
    "coordinates": [
     14.54599,
     46.11727
    ]
   },
   "properties": {
    "id": "cestel",
    "name": "Cestel d.o.o.",
    "name_sl": "Cestel cestni inženiring d.o.o.",
    "sector": "AI, data and monitoring",
    "sector_key": "ai",
    "evidence": "ZAG premises or named partner",
    "evidence_key": "inst",
    "role": "Industrial partner on bridge weigh-in-motion work, maker of SiWIM",
    "years": "",
    "client": "",
    "location": "Spruha 32, Trzin",
    "region": "Osrednjeslovenska",
    "region_code": "SI041",
    "built": "",
    "position_accuracy": "Street address, approximate",
    "description": "Industrial partner on bridge weigh-in-motion work, maker of SiWIM.\n\nSector: AI, data and monitoring\nLocation: Spruha 32, Trzin\nPosition: Street address, approximate",
    "_umap_options": {
     "color": "#7B4BD8",
     "fillColor": "#7B4BD8",
     "weight": 2,
     "opacity": 1,
     "fillOpacity": 0.25,
     "iconClass": "Circle"
    }
   }
  },
  {
   "type": "Feature",
   "geometry": {
    "type": "Point",
    "coordinates": [
     13.64899,
     45.53022
    ]
   },
   "properties": {
    "id": "innorenew",
    "name": "InnoRenew CoE",
    "name_sl": "InnoRenew CoE, Izola",
    "sector": "Institutions and laboratories",
    "sector_key": "inst",
    "evidence": "ZAG premises or named partner",
    "evidence_key": "inst",
    "role": "Partner institute, ZAG is a founding partner",
    "years": "2017–2022",
    "client": "",
    "location": "Livade 6a, Izola",
    "region": "Obalno-kraška",
    "region_code": "SI044",
    "built": "2017",
    "position_accuracy": "Street address, approximate",
    "description": "Partner institute, ZAG is a founding partner.\n\nYears: 2017–2022\nBuilt: 2017\nSector: Institutions and laboratories\nLocation: Livade 6a, Izola\nPosition: Street address, approximate",
    "_umap_options": {
     "color": "#60687A",
     "fillColor": "#60687A",
     "weight": 2,
     "opacity": 1,
     "fillOpacity": 0.25,
     "iconClass": "Circle"
    }
   }
  },
  {
   "type": "Feature",
   "geometry": {
    "type": "Point",
    "coordinates": [
     14.4945,
     46.0455
    ]
   },
   "properties": {
    "id": "ulfgg",
    "name": "UL FGG",
    "name_sl": "Fakulteta za gradbeništvo in geodezijo",
    "sector": "Institutions and laboratories",
    "sector_key": "inst",
    "evidence": "ZAG premises or named partner",
    "evidence_key": "inst",
    "role": "Faculty of Civil and Geodetic Engineering, nearest academic partner",
    "years": "",
    "client": "",
    "location": "Jamova cesta 2, Ljubljana",
    "region": "Osrednjeslovenska",
    "region_code": "SI041",
    "built": "",
    "position_accuracy": "Street address, approximate",
    "description": "Faculty of Civil and Geodetic Engineering, nearest academic partner.\n\nSector: Institutions and laboratories\nLocation: Jamova cesta 2, Ljubljana\nPosition: Street address, approximate",
    "_umap_options": {
     "color": "#60687A",
     "fillColor": "#60687A",
     "weight": 2,
     "opacity": 1,
     "fillOpacity": 0.25,
     "iconClass": "Circle"
    }
   }
  },
  {
   "type": "Feature",
   "geometry": {
    "type": "Point",
    "coordinates": [
     13.99048,
     46.45371
    ]
   },
   "properties": {
    "id": "karavanke_c",
    "name": "Karavanke Motorway Tunnel",
    "name_sl": "Predor Karavanke, avtocesta",
    "sector": "Tunnels and underground",
    "sector_key": "tunnel",
    "evidence": "ZAG work documented",
    "evidence_key": "doc",
    "role": "External control of the repair works, and geological-geotechnical investigations for the design",
    "years": "1990–2014",
    "client": "DARS",
    "location": "Hrušica, Jesenice",
    "region": "Gorenjska",
    "region_code": "SI042",
    "built": "",
    "position_accuracy": "Published coordinate",
    "description": "External control of the repair works, and geological-geotechnical investigations for the design.\n\nYears: 1990–2014\nClient: DARS\nSector: Tunnels and underground\nLocation: Hrušica, Jesenice\nPosition: Published coordinate",
    "_umap_options": {
     "color": "#5A4FCF",
     "fillColor": "#5A4FCF",
     "weight": 2,
     "opacity": 1,
     "fillOpacity": 1,
     "iconClass": "Circle"
    }
   }
  },
  {
   "type": "Feature",
   "geometry": {
    "type": "Point",
    "coordinates": [
     14.01555,
     46.44924
    ]
   },
   "properties": {
    "id": "karavanke_r",
    "name": "Karavanke Railway Tunnel",
    "name_sl": "Predor Karavanke, železnica",
    "sector": "Tunnels and underground",
    "sector_key": "tunnel",
    "evidence": "ZAG work documented",
    "evidence_key": "doc",
    "role": "External control of the repair works",
    "years": "1998–2014",
    "client": "DARS",
    "location": "Jesenice",
    "region": "Gorenjska",
    "region_code": "SI042",
    "built": "",
    "position_accuracy": "Published coordinate",
    "description": "External control of the repair works.\n\nYears: 1998–2014\nClient: DARS\nSector: Tunnels and underground\nLocation: Jesenice\nPosition: Published coordinate",
    "_umap_options": {
     "color": "#5A4FCF",
     "fillColor": "#5A4FCF",
     "weight": 2,
     "opacity": 1,
     "fillOpacity": 1,
     "iconClass": "Circle"
    }
   }
  },
  {
   "type": "Feature",
   "geometry": {
    "type": "Point",
    "coordinates": [
     14.55893,
     46.01739
    ]
   },
   "properties": {
    "id": "golovec",
    "name": "Golovec Tunnel",
    "name_sl": "Predor Golovec",
    "sector": "Tunnels and underground",
    "sector_key": "tunnel",
    "evidence": "ZAG work documented",
    "evidence_key": "doc",
    "role": "External control of the quality of construction, and geological-geotechnical investigations for the design",
    "years": "1990–2014",
    "client": "DARS",
    "location": "Ljubljana",
    "region": "Osrednjeslovenska",
    "region_code": "SI041",
    "built": "",
    "position_accuracy": "Published coordinate",
    "description": "External control of the quality of construction, and geological-geotechnical investigations for the design.\n\nYears: 1990–2014\nClient: DARS\nSector: Tunnels and underground\nLocation: Ljubljana\nPosition: Published coordinate",
    "_umap_options": {
     "color": "#5A4FCF",
     "fillColor": "#5A4FCF",
     "weight": 2,
     "opacity": 1,
     "fillOpacity": 1,
     "iconClass": "Circle"
    }
   }
  },
  {
   "type": "Feature",
   "geometry": {
    "type": "Point",
    "coordinates": [
     14.46048,
     46.08816
    ]
   },
   "properties": {
    "id": "sentvid",
    "name": "Šentvid Tunnel",
    "name_sl": "Predor Šentvid",
    "sector": "Tunnels and underground",
    "sector_key": "tunnel",
    "evidence": "ZAG work documented",
    "evidence_key": "doc",
    "role": "External control of the quality of construction, and geological-geotechnical investigations for the design",
    "years": "1990–2014",
    "client": "DARS",
    "location": "Ljubljana",
    "region": "Osrednjeslovenska",
    "region_code": "SI041",
    "built": "",
    "position_accuracy": "Published coordinate",
    "description": "External control of the quality of construction, and geological-geotechnical investigations for the design.\n\nYears: 1990–2014\nClient: DARS\nSector: Tunnels and underground\nLocation: Ljubljana\nPosition: Published coordinate",
    "_umap_options": {
     "color": "#5A4FCF",
     "fillColor": "#5A4FCF",
     "weight": 2,
     "opacity": 1,
     "fillOpacity": 1,
     "iconClass": "Circle"
    }
   }
  },
  {
   "type": "Feature",
   "geometry": {
    "type": "Point",
    "coordinates": [
     14.8604,
     46.1836
    ]
   },
   "properties": {
    "id": "trojane",
    "name": "Trojane Tunnel",
    "name_sl": "Predor Trojane",
    "sector": "Tunnels and underground",
    "sector_key": "tunnel",
    "evidence": "ZAG work documented",
    "evidence_key": "doc",
    "role": "External control of the quality of construction, and geological-geotechnical investigations for the design",
    "years": "1990–2014",
    "client": "DARS",
    "location": "Trojane, Lukovica",
    "region": "Osrednjeslovenska",
    "region_code": "SI041",
    "built": "",
    "position_accuracy": "Published coordinate",
    "description": "External control of the quality of construction, and geological-geotechnical investigations for the design.\n\nYears: 1990–2014\nClient: DARS\nSector: Tunnels and underground\nLocation: Trojane, Lukovica\nPosition: Published coordinate",
    "_umap_options": {
     "color": "#5A4FCF",
     "fillColor": "#5A4FCF",
     "weight": 2,
     "opacity": 1,
     "fillOpacity": 1,
     "iconClass": "Circle"
    }
   }
  },
  {
   "type": "Feature",
   "geometry": {
    "type": "Point",
    "coordinates": [
     14.8433,
     46.1761
    ]
   },
   "properties": {
    "id": "podmilj",
    "name": "Podmilj Tunnel",
    "name_sl": "Predor Podmilj",
    "sector": "Tunnels and underground",
    "sector_key": "tunnel",
    "evidence": "ZAG work documented",
    "evidence_key": "doc",
    "role": "External control of the quality of construction",
    "years": "1998–2014",
    "client": "DARS",
    "location": "Podmilj, Lukovica",
    "region": "Osrednjeslovenska",
    "region_code": "SI041",
    "built": "",
    "position_accuracy": "Settlement centre, approximate",
    "description": "External control of the quality of construction.\n\nYears: 1998–2014\nClient: DARS\nSector: Tunnels and underground\nLocation: Podmilj, Lukovica\nPosition: Settlement centre, approximate",
    "_umap_options": {
     "color": "#5A4FCF",
     "fillColor": "#5A4FCF",
     "weight": 2,
     "opacity": 1,
     "fillOpacity": 1,
     "iconClass": "Circle"
    }
   }
  },
  {
   "type": "Feature",
   "geometry": {
    "type": "Point",
    "coordinates": [
     14.8933,
     46.1884
    ]
   },
   "properties": {
    "id": "vzideh",
    "name": "V Zideh Tunnel",
    "name_sl": "Predor V Zideh",
    "sector": "Tunnels and underground",
    "sector_key": "tunnel",
    "evidence": "ZAG work documented",
    "evidence_key": "doc",
    "role": "External control of the quality of construction",
    "years": "1998–2014",
    "client": "DARS",
    "location": "V Zideh, Lukovica",
    "region": "Osrednjeslovenska",
    "region_code": "SI041",
    "built": "",
    "position_accuracy": "Settlement centre, approximate",
    "description": "External control of the quality of construction.\n\nYears: 1998–2014\nClient: DARS\nSector: Tunnels and underground\nLocation: V Zideh, Lukovica\nPosition: Settlement centre, approximate",
    "_umap_options": {
     "color": "#5A4FCF",
     "fillColor": "#5A4FCF",
     "weight": 2,
     "opacity": 1,
     "fillOpacity": 1,
     "iconClass": "Circle"
    }
   }
  },
  {
   "type": "Feature",
   "geometry": {
    "type": "Point",
    "coordinates": [
     13.87372,
     45.57724
    ]
   },
   "properties": {
    "id": "kastelec",
    "name": "Kastelec Tunnel",
    "name_sl": "Predor Kastelec",
    "sector": "Tunnels and underground",
    "sector_key": "tunnel",
    "evidence": "ZAG work documented",
    "evidence_key": "doc",
    "role": "External control of the quality of construction",
    "years": "1998–2014",
    "client": "DARS",
    "location": "Kastelec, Koper",
    "region": "Obalno-kraška",
    "region_code": "SI044",
    "built": "",
    "position_accuracy": "Published coordinate",
    "description": "External control of the quality of construction.\n\nYears: 1998–2014\nClient: DARS\nSector: Tunnels and underground\nLocation: Kastelec, Koper\nPosition: Published coordinate",
    "_umap_options": {
     "color": "#5A4FCF",
     "fillColor": "#5A4FCF",
     "weight": 2,
     "opacity": 1,
     "fillOpacity": 1,
     "iconClass": "Circle"
    }
   }
  },
  {
   "type": "Feature",
   "geometry": {
    "type": "Point",
    "coordinates": [
     13.8304,
     45.55161
    ]
   },
   "properties": {
    "id": "dekani",
    "name": "Dekani Tunnel",
    "name_sl": "Predor Dekani",
    "sector": "Tunnels and underground",
    "sector_key": "tunnel",
    "evidence": "ZAG work documented",
    "evidence_key": "doc",
    "role": "External control of the quality of construction",
    "years": "1998–2014",
    "client": "DARS",
    "location": "Dekani, Koper",
    "region": "Obalno-kraška",
    "region_code": "SI044",
    "built": "",
    "position_accuracy": "Published coordinate",
    "description": "External control of the quality of construction.\n\nYears: 1998–2014\nClient: DARS\nSector: Tunnels and underground\nLocation: Dekani, Koper\nPosition: Published coordinate",
    "_umap_options": {
     "color": "#5A4FCF",
     "fillColor": "#5A4FCF",
     "weight": 2,
     "opacity": 1,
     "fillOpacity": 1,
     "iconClass": "Circle"
    }
   }
  },
  {
   "type": "Feature",
   "geometry": {
    "type": "Point",
    "coordinates": [
     13.71591,
     45.54318
    ]
   },
   "properties": {
    "id": "markovec",
    "name": "Markovec Tunnel",
    "name_sl": "Predor Markovec",
    "sector": "Tunnels and underground",
    "sector_key": "tunnel",
    "evidence": "ZAG work documented",
    "evidence_key": "doc",
    "role": "External control of the quality of construction",
    "years": "1998–2014",
    "client": "DARS",
    "location": "Koper",
    "region": "Obalno-kraška",
    "region_code": "SI044",
    "built": "",
    "position_accuracy": "Published coordinate",
    "description": "External control of the quality of construction.\n\nYears: 1998–2014\nClient: DARS\nSector: Tunnels and underground\nLocation: Koper\nPosition: Published coordinate",
    "_umap_options": {
     "color": "#5A4FCF",
     "fillColor": "#5A4FCF",
     "weight": 2,
     "opacity": 1,
     "fillOpacity": 1,
     "iconClass": "Circle"
    }
   }
  },
  {
   "type": "Feature",
   "geometry": {
    "type": "Point",
    "coordinates": [
     14.7844,
     45.9159
    ]
   },
   "properties": {
    "id": "lescevje",
    "name": "Leščevje Tunnel",
    "name_sl": "Predor Leščevje",
    "sector": "Tunnels and underground",
    "sector_key": "tunnel",
    "evidence": "ZAG work documented",
    "evidence_key": "doc",
    "role": "External control of the quality of construction",
    "years": "1998–2014",
    "client": "DARS",
    "location": "Leščevje, Trebnje",
    "region": "Osrednjeslovenska",
    "region_code": "SI041",
    "built": "",
    "position_accuracy": "Settlement centre, approximate",
    "description": "External control of the quality of construction.\n\nYears: 1998–2014\nClient: DARS\nSector: Tunnels and underground\nLocation: Leščevje, Trebnje\nPosition: Settlement centre, approximate",
    "_umap_options": {
     "color": "#5A4FCF",
     "fillColor": "#5A4FCF",
     "weight": 2,
     "opacity": 1,
     "fillOpacity": 1,
     "iconClass": "Circle"
    }
   }
  },
  {
   "type": "Feature",
   "geometry": {
    "type": "Point",
    "coordinates": [
     15.9391,
     46.5745
    ]
   },
   "properties": {
    "id": "cenkova",
    "name": "Cenkova Tunnel",
    "name_sl": "Predor Cenkova",
    "sector": "Tunnels and underground",
    "sector_key": "tunnel",
    "evidence": "ZAG work documented",
    "evidence_key": "doc",
    "role": "External control of the quality of construction",
    "years": "1998–2014",
    "client": "DARS",
    "location": "Cenkova, Cerkvenjak",
    "region": "Podravska",
    "region_code": "SI032",
    "built": "",
    "position_accuracy": "Settlement centre, approximate",
    "description": "External control of the quality of construction.\n\nYears: 1998–2014\nClient: DARS\nSector: Tunnels and underground\nLocation: Cenkova, Cerkvenjak\nPosition: Settlement centre, approximate",
    "_umap_options": {
     "color": "#5A4FCF",
     "fillColor": "#5A4FCF",
     "weight": 2,
     "opacity": 1,
     "fillOpacity": 1,
     "iconClass": "Circle"
    }
   }
  },
  {
   "type": "Feature",
   "geometry": {
    "type": "Point",
    "coordinates": [
     15.4327,
     46.2839
    ]
   },
   "properties": {
    "id": "pletovarje",
    "name": "Pletovarje Tunnel",
    "name_sl": "Predor Pletovarje",
    "sector": "Tunnels and underground",
    "sector_key": "tunnel",
    "evidence": "ZAG work documented",
    "evidence_key": "doc",
    "role": "Geological-geotechnical investigations for the design",
    "years": "1990–2013",
    "client": "DARS",
    "location": "Pletovarje, Slovenske Konjice",
    "region": "Savinjska",
    "region_code": "SI034",
    "built": "",
    "position_accuracy": "Settlement centre, approximate",
    "description": "Geological-geotechnical investigations for the design.\n\nYears: 1990–2013\nClient: DARS\nSector: Tunnels and underground\nLocation: Pletovarje, Slovenske Konjice\nPosition: Settlement centre, approximate",
    "_umap_options": {
     "color": "#5A4FCF",
     "fillColor": "#5A4FCF",
     "weight": 2,
     "opacity": 1,
     "fillOpacity": 1,
     "iconClass": "Circle"
    }
   }
  },
  {
   "type": "Feature",
   "geometry": {
    "type": "Point",
    "coordinates": [
     15.45759,
     46.3137
    ]
   },
   "properties": {
    "id": "golo_rebro",
    "name": "Golo Rebro Tunnel",
    "name_sl": "Predor Golo Rebro",
    "sector": "Tunnels and underground",
    "sector_key": "tunnel",
    "evidence": "ZAG work documented",
    "evidence_key": "doc",
    "role": "Geological-geotechnical investigations for the design",
    "years": "1990–2013",
    "client": "DARS",
    "location": "Slovenske Konjice",
    "region": "Savinjska",
    "region_code": "SI034",
    "built": "",
    "position_accuracy": "Published coordinate",
    "description": "Geological-geotechnical investigations for the design.\n\nYears: 1990–2013\nClient: DARS\nSector: Tunnels and underground\nLocation: Slovenske Konjice\nPosition: Published coordinate",
    "_umap_options": {
     "color": "#5A4FCF",
     "fillColor": "#5A4FCF",
     "weight": 2,
     "opacity": 1,
     "fillOpacity": 1,
     "iconClass": "Circle"
    }
   }
  },
  {
   "type": "Feature",
   "geometry": {
    "type": "Point",
    "coordinates": [
     13.9679,
     45.808
    ]
   },
   "properties": {
    "id": "tabor_h4",
    "name": "Tabor Tunnel",
    "name_sl": "Predor Tabor",
    "sector": "Tunnels and underground",
    "sector_key": "tunnel",
    "evidence": "ZAG work documented",
    "evidence_key": "doc",
    "role": "External control of the quality of construction, and geological-geotechnical investigations for the design",
    "years": "1990–2014",
    "client": "DARS",
    "location": "Podnanos, Vipava",
    "region": "Goriška",
    "region_code": "SI043",
    "built": "",
    "position_accuracy": "Settlement centre, approximate",
    "description": "External control of the quality of construction, and geological-geotechnical investigations for the design.\n\nYears: 1990–2014\nClient: DARS\nSector: Tunnels and underground\nLocation: Podnanos, Vipava\nPosition: Settlement centre, approximate",
    "_umap_options": {
     "color": "#5A4FCF",
     "fillColor": "#5A4FCF",
     "weight": 2,
     "opacity": 1,
     "fillOpacity": 1,
     "iconClass": "Circle"
    }
   }
  },
  {
   "type": "Feature",
   "geometry": {
    "type": "Point",
    "coordinates": [
     15.2237,
     46.0442
    ]
   },
   "properties": {
    "id": "he_vrhovo",
    "name": "HE Vrhovo",
    "name_sl": "Hidroelektrarna Vrhovo",
    "sector": "Hydropower and energy",
    "sector_key": "energy",
    "evidence": "ZAG work documented",
    "evidence_key": "doc",
    "role": "Numerical modelling of the dam structure",
    "years": "2012",
    "client": "Savske elektrarne Ljubljana, d.o.o.",
    "location": "Vrhovo, Radeče",
    "region": "Posavska",
    "region_code": "SI036",
    "built": "",
    "position_accuracy": "Published coordinate",
    "description": "Numerical modelling of the dam structure.\n\nYears: 2012\nClient: Savske elektrarne Ljubljana, d.o.o.\nSector: Hydropower and energy\nLocation: Vrhovo, Radeče\nPosition: Published coordinate",
    "_umap_options": {
     "color": "#0E93A6",
     "fillColor": "#0E93A6",
     "weight": 2,
     "opacity": 1,
     "fillOpacity": 1,
     "iconClass": "Circle"
    }
   }
  },
  {
   "type": "Feature",
   "geometry": {
    "type": "Point",
    "coordinates": [
     15.64398,
     46.56247
    ]
   },
   "properties": {
    "id": "jez_melje",
    "name": "Melje Dam and Small HPP",
    "name_sl": "Jez Melje in MHE Melje",
    "sector": "Hydropower and energy",
    "sector_key": "energy",
    "evidence": "ZAG work documented",
    "evidence_key": "doc",
    "role": "Third party quality control of the materials used in the upgrade",
    "years": "2006–2009",
    "client": "Dravske elektrarne Maribor, d.o.o.",
    "location": "Melje, Maribor",
    "region": "Podravska",
    "region_code": "SI032",
    "built": "",
    "position_accuracy": "Municipality centre, approximate",
    "description": "Third party quality control of the materials used in the upgrade.\n\nYears: 2006–2009\nClient: Dravske elektrarne Maribor, d.o.o.\nSector: Hydropower and energy\nLocation: Melje, Maribor\nPosition: Municipality centre, approximate",
    "_umap_options": {
     "color": "#0E93A6",
     "fillColor": "#0E93A6",
     "weight": 2,
     "opacity": 1,
     "fillOpacity": 1,
     "iconClass": "Circle"
    }
   }
  },
  {
   "type": "Feature",
   "geometry": {
    "type": "Point",
    "coordinates": [
     15.2812,
     46.0171
    ]
   },
   "properties": {
    "id": "he_bostanj",
    "name": "HE Boštanj",
    "name_sl": "Hidroelektrarna Boštanj",
    "sector": "Hydropower and energy",
    "sector_key": "energy",
    "evidence": "ZAG work documented",
    "evidence_key": "doc",
    "role": "Third party quality control of materials, and monitoring during and after construction",
    "years": "2007–2013",
    "client": "HESS, d.o.o. and INFRA, d.o.o.",
    "location": "Boštanj, Sevnica",
    "region": "Posavska",
    "region_code": "SI036",
    "built": "",
    "position_accuracy": "Published coordinate",
    "description": "Third party quality control of materials, and monitoring during and after construction.\n\nYears: 2007–2013\nClient: HESS, d.o.o. and INFRA, d.o.o.\nSector: Hydropower and energy\nLocation: Boštanj, Sevnica\nPosition: Published coordinate",
    "_umap_options": {
     "color": "#0E93A6",
     "fillColor": "#0E93A6",
     "weight": 2,
     "opacity": 1,
     "fillOpacity": 1,
     "iconClass": "Circle"
    }
   }
  },
  {
   "type": "Feature",
   "geometry": {
    "type": "Point",
    "coordinates": [
     15.3813,
     45.9895
    ]
   },
   "properties": {
    "id": "he_arto",
    "name": "HE Arto Blanca",
    "name_sl": "Hidroelektrarna Arto Blanca",
    "sector": "Hydropower and energy",
    "sector_key": "energy",
    "evidence": "ZAG work documented",
    "evidence_key": "doc",
    "role": "Third party quality control of materials, and monitoring during and after construction",
    "years": "2007–2013",
    "client": "HESS, d.o.o. and INFRA, d.o.o.",
    "location": "Blanca, Sevnica",
    "region": "Posavska",
    "region_code": "SI036",
    "built": "",
    "position_accuracy": "Published coordinate",
    "description": "Third party quality control of materials, and monitoring during and after construction.\n\nYears: 2007–2013\nClient: HESS, d.o.o. and INFRA, d.o.o.\nSector: Hydropower and energy\nLocation: Blanca, Sevnica\nPosition: Published coordinate",
    "_umap_options": {
     "color": "#0E93A6",
     "fillColor": "#0E93A6",
     "weight": 2,
     "opacity": 1,
     "fillOpacity": 1,
     "iconClass": "Circle"
    }
   }
  },
  {
   "type": "Feature",
   "geometry": {
    "type": "Point",
    "coordinates": [
     15.4815,
     45.9748
    ]
   },
   "properties": {
    "id": "he_krsko",
    "name": "HE Krško",
    "name_sl": "Hidroelektrarna Krško",
    "sector": "Hydropower and energy",
    "sector_key": "energy",
    "evidence": "ZAG work documented",
    "evidence_key": "doc",
    "role": "Third party quality control of materials, and monitoring during and after construction",
    "years": "2007–2013",
    "client": "HESS, d.o.o. and INFRA, d.o.o.",
    "location": "Krško",
    "region": "Posavska",
    "region_code": "SI036",
    "built": "",
    "position_accuracy": "Published coordinate",
    "description": "Third party quality control of materials, and monitoring during and after construction.\n\nYears: 2007–2013\nClient: HESS, d.o.o. and INFRA, d.o.o.\nSector: Hydropower and energy\nLocation: Krško\nPosition: Published coordinate",
    "_umap_options": {
     "color": "#0E93A6",
     "fillColor": "#0E93A6",
     "weight": 2,
     "opacity": 1,
     "fillOpacity": 1,
     "iconClass": "Circle"
    }
   }
  },
  {
   "type": "Feature",
   "geometry": {
    "type": "Point",
    "coordinates": [
     13.6707,
     46.1027
    ]
   },
   "properties": {
    "id": "che_avce",
    "name": "CHE Avče",
    "name_sl": "Črpalna hidroelektrarna Avče",
    "sector": "Hydropower and energy",
    "sector_key": "energy",
    "evidence": "ZAG work documented",
    "evidence_key": "doc",
    "role": "Third party quality control of materials, and monitoring during and after construction",
    "years": "2007–2009",
    "client": "Soške elektrarne Nova Gorica, d.o.o.",
    "location": "Avče, Kanal ob Soči",
    "region": "Goriška",
    "region_code": "SI043",
    "built": "",
    "position_accuracy": "Published coordinate",
    "description": "Third party quality control of materials, and monitoring during and after construction.\n\nYears: 2007–2009\nClient: Soške elektrarne Nova Gorica, d.o.o.\nSector: Hydropower and energy\nLocation: Avče, Kanal ob Soči\nPosition: Published coordinate",
    "_umap_options": {
     "color": "#0E93A6",
     "fillColor": "#0E93A6",
     "weight": 2,
     "opacity": 1,
     "fillOpacity": 1,
     "iconClass": "Circle"
    }
   }
  },
  {
   "type": "Feature",
   "geometry": {
    "type": "Point",
    "coordinates": [
     13.87,
     45.909
    ]
   },
   "properties": {
    "id": "slano_blato",
    "name": "Slano Blato Landslide",
    "name_sl": "Plaz Slano blato",
    "sector": "Geotechnics and ground",
    "sector_key": "geo",
    "evidence": "ZAG work documented",
    "evidence_key": "doc",
    "role": "Geological-geomechanical investigations for the landslide",
    "years": "2001–2004",
    "client": "Ministry of the Environment and Spatial Planning",
    "location": "Lokavec, Ajdovščina",
    "region": "Goriška",
    "region_code": "SI043",
    "built": "",
    "position_accuracy": "Published coordinate",
    "description": "Geological-geomechanical investigations for the landslide.\n\nYears: 2001–2004\nClient: Ministry of the Environment and Spatial Planning\nSector: Geotechnics and ground\nLocation: Lokavec, Ajdovščina\nPosition: Published coordinate",
    "_umap_options": {
     "color": "#96602A",
     "fillColor": "#96602A",
     "weight": 2,
     "opacity": 1,
     "fillOpacity": 1,
     "iconClass": "Circle"
    }
   }
  },
  {
   "type": "Feature",
   "geometry": {
    "type": "Point",
    "coordinates": [
     13.60312,
     46.40591
    ]
   },
   "properties": {
    "id": "stoze",
    "name": "Stože Landslide",
    "name_sl": "Plaz Stože pod Mangartom",
    "sector": "Geotechnics and ground",
    "sector_key": "geo",
    "evidence": "ZAG work documented",
    "evidence_key": "doc",
    "role": "Investigations of the shear properties of the landslide mass",
    "years": "2002",
    "client": "Ministry of Defence",
    "location": "Log pod Mangartom, Bovec",
    "region": "Goriška",
    "region_code": "SI043",
    "built": "",
    "position_accuracy": "Settlement centre, approximate",
    "description": "Investigations of the shear properties of the landslide mass.\n\nYears: 2002\nClient: Ministry of Defence\nSector: Geotechnics and ground\nLocation: Log pod Mangartom, Bovec\nPosition: Settlement centre, approximate",
    "_umap_options": {
     "color": "#96602A",
     "fillColor": "#96602A",
     "weight": 2,
     "opacity": 1,
     "fillOpacity": 1,
     "iconClass": "Circle"
    }
   }
  },
  {
   "type": "Feature",
   "geometry": {
    "type": "Point",
    "coordinates": [
     14.49594,
     46.28495
    ]
   },
   "properties": {
    "id": "krvavec",
    "name": "Krvavec Cableway",
    "name_sl": "Žičnice Krvavec",
    "sector": "Cableways and lifts",
    "sector_key": "cable",
    "evidence": "ZAG work documented",
    "evidence_key": "doc",
    "role": "Periodical technical inspections of cableway installations",
    "years": "",
    "client": "RTC Krvavec, d.d.",
    "location": "Grad, Cerklje na Gorenjskem",
    "region": "Gorenjska",
    "region_code": "SI042",
    "built": "",
    "position_accuracy": "Published coordinate",
    "description": "Periodical technical inspections of cableway installations.\n\nClient: RTC Krvavec, d.d.\nSector: Cableways and lifts\nLocation: Grad, Cerklje na Gorenjskem\nPosition: Published coordinate",
    "_umap_options": {
     "color": "#0E8F8F",
     "fillColor": "#0E8F8F",
     "weight": 2,
     "opacity": 1,
     "fillOpacity": 1,
     "iconClass": "Circle"
    }
   }
  },
  {
   "type": "Feature",
   "geometry": {
    "type": "Point",
    "coordinates": [
     14.60863,
     46.30553
    ]
   },
   "properties": {
    "id": "velikaplanina",
    "name": "Velika Planina Cableway",
    "name_sl": "Žičnica Velika planina",
    "sector": "Cableways and lifts",
    "sector_key": "cable",
    "evidence": "ZAG work documented",
    "evidence_key": "doc",
    "role": "Periodical technical inspections of cableway installations",
    "years": "",
    "client": "Velika planina d.o.o.",
    "location": "Kamniška Bistrica, Kamnik",
    "region": "Osrednjeslovenska",
    "region_code": "SI041",
    "built": "",
    "position_accuracy": "Published coordinate",
    "description": "Periodical technical inspections of cableway installations.\n\nClient: Velika planina d.o.o.\nSector: Cableways and lifts\nLocation: Kamniška Bistrica, Kamnik\nPosition: Published coordinate",
    "_umap_options": {
     "color": "#0E8F8F",
     "fillColor": "#0E8F8F",
     "weight": 2,
     "opacity": 1,
     "fillOpacity": 1,
     "iconClass": "Circle"
    }
   }
  },
  {
   "type": "Feature",
   "geometry": {
    "type": "Point",
    "coordinates": [
     14.5097,
     46.05014
    ]
   },
   "properties": {
    "id": "grad_vzpenjaca",
    "name": "Ljubljana Castle Funicular",
    "name_sl": "Tirna vzpenjača na Ljubljanski grad",
    "sector": "Cableways and lifts",
    "sector_key": "cable",
    "evidence": "ZAG work documented",
    "evidence_key": "doc",
    "role": "Periodical technical inspections of cableway installations",
    "years": "",
    "client": "Javni zavod Ljubljanski grad",
    "location": "Ljubljana",
    "region": "Osrednjeslovenska",
    "region_code": "SI041",
    "built": "",
    "position_accuracy": "Published coordinate",
    "description": "Periodical technical inspections of cableway installations.\n\nClient: Javni zavod Ljubljanski grad\nSector: Cableways and lifts\nLocation: Ljubljana\nPosition: Published coordinate",
    "_umap_options": {
     "color": "#0E8F8F",
     "fillColor": "#0E8F8F",
     "weight": 2,
     "opacity": 1,
     "fillOpacity": 1,
     "iconClass": "Circle"
    }
   }
  },
  {
   "type": "Feature",
   "geometry": {
    "type": "Point",
    "coordinates": [
     13.7871,
     46.48537
    ]
   },
   "properties": {
    "id": "kranjskagora_z",
    "name": "Kranjska Gora Cableways",
    "name_sl": "Žičnice Kranjska Gora",
    "sector": "Cableways and lifts",
    "sector_key": "cable",
    "evidence": "ZAG work documented",
    "evidence_key": "doc",
    "role": "Periodical technical inspections, and special inspections of sub-systems and safety devices",
    "years": "2013",
    "client": "RTC žičnice Kranjska gora, d.d.",
    "location": "Kranjska Gora",
    "region": "Gorenjska",
    "region_code": "SI042",
    "built": "",
    "position_accuracy": "Settlement centre, approximate",
    "description": "Periodical technical inspections, and special inspections of sub-systems and safety devices.\n\nYears: 2013\nClient: RTC žičnice Kranjska gora, d.d.\nSector: Cableways and lifts\nLocation: Kranjska Gora\nPosition: Settlement centre, approximate",
    "_umap_options": {
     "color": "#0E8F8F",
     "fillColor": "#0E8F8F",
     "weight": 2,
     "opacity": 1,
     "fillOpacity": 1,
     "iconClass": "Circle"
    }
   }
  },
  {
   "type": "Feature",
   "geometry": {
    "type": "Point",
    "coordinates": [
     13.82933,
     46.27717
    ]
   },
   "properties": {
    "id": "vogel",
    "name": "Vogel Cableway",
    "name_sl": "Žičnica Vogel",
    "sector": "Cableways and lifts",
    "sector_key": "cable",
    "evidence": "ZAG work documented",
    "evidence_key": "doc",
    "role": "Periodical technical inspections, and special inspections of sub-systems and safety devices",
    "years": "2012",
    "client": "Žičnice Vogel Bohinj, d.d.",
    "location": "Ukanc, Bohinj",
    "region": "Gorenjska",
    "region_code": "SI042",
    "built": "",
    "position_accuracy": "Settlement centre, approximate",
    "description": "Periodical technical inspections, and special inspections of sub-systems and safety devices.\n\nYears: 2012\nClient: Žičnice Vogel Bohinj, d.d.\nSector: Cableways and lifts\nLocation: Ukanc, Bohinj\nPosition: Settlement centre, approximate",
    "_umap_options": {
     "color": "#0E8F8F",
     "fillColor": "#0E8F8F",
     "weight": 2,
     "opacity": 1,
     "fillOpacity": 1,
     "iconClass": "Circle"
    }
   }
  },
  {
   "type": "Feature",
   "geometry": {
    "type": "Point",
    "coordinates": [
     14.05896,
     46.15026
    ]
   },
   "properties": {
    "id": "cerkno_z",
    "name": "Cerkno Cableways",
    "name_sl": "Žičnice Cerkno",
    "sector": "Cableways and lifts",
    "sector_key": "cable",
    "evidence": "ZAG work documented",
    "evidence_key": "doc",
    "role": "Periodical technical inspections, and special inspections of sub-systems and safety devices",
    "years": "2013",
    "client": "Hotel Cerkno d.o.o.",
    "location": "Gorenji Novaki, Cerkno",
    "region": "Goriška",
    "region_code": "SI043",
    "built": "",
    "position_accuracy": "Settlement centre, approximate",
    "description": "Periodical technical inspections, and special inspections of sub-systems and safety devices.\n\nYears: 2013\nClient: Hotel Cerkno d.o.o.\nSector: Cableways and lifts\nLocation: Gorenji Novaki, Cerkno\nPosition: Settlement centre, approximate",
    "_umap_options": {
     "color": "#0E8F8F",
     "fillColor": "#0E8F8F",
     "weight": 2,
     "opacity": 1,
     "fillOpacity": 1,
     "iconClass": "Circle"
    }
   }
  },
  {
   "type": "Feature",
   "geometry": {
    "type": "Point",
    "coordinates": [
     14.93191,
     46.35681
    ]
   },
   "properties": {
    "id": "golte",
    "name": "Golte Cableway",
    "name_sl": "Žičnica Golte",
    "sector": "Cableways and lifts",
    "sector_key": "cable",
    "evidence": "ZAG work documented",
    "evidence_key": "doc",
    "role": "Periodical technical inspections, and special inspections of sub-systems and safety devices",
    "years": "2012–2014",
    "client": "Golte d.o.o.",
    "location": "Radegunda, Mozirje",
    "region": "Savinjska",
    "region_code": "SI034",
    "built": "",
    "position_accuracy": "Settlement centre, approximate",
    "description": "Periodical technical inspections, and special inspections of sub-systems and safety devices.\n\nYears: 2012–2014\nClient: Golte d.o.o.\nSector: Cableways and lifts\nLocation: Radegunda, Mozirje\nPosition: Settlement centre, approximate",
    "_umap_options": {
     "color": "#0E8F8F",
     "fillColor": "#0E8F8F",
     "weight": 2,
     "opacity": 1,
     "fillOpacity": 1,
     "iconClass": "Circle"
    }
   }
  },
  {
   "type": "Feature",
   "geometry": {
    "type": "Point",
    "coordinates": [
     13.55097,
     46.33678
    ]
   },
   "properties": {
    "id": "kanin_z",
    "name": "Kanin Cableway",
    "name_sl": "Žičnica Kanin",
    "sector": "Cableways and lifts",
    "sector_key": "cable",
    "evidence": "ZAG work documented",
    "evidence_key": "doc",
    "role": "Periodical technical inspections, special inspections, and inspection of the support columns",
    "years": "2012",
    "client": "ATC Kanin d.o.o.",
    "location": "Bovec",
    "region": "Goriška",
    "region_code": "SI043",
    "built": "",
    "position_accuracy": "Settlement centre, approximate",
    "description": "Periodical technical inspections, special inspections, and inspection of the support columns.\n\nYears: 2012\nClient: ATC Kanin d.o.o.\nSector: Cableways and lifts\nLocation: Bovec\nPosition: Settlement centre, approximate",
    "_umap_options": {
     "color": "#0E8F8F",
     "fillColor": "#0E8F8F",
     "weight": 2,
     "opacity": 1,
     "fillOpacity": 1,
     "iconClass": "Circle"
    }
   }
  },
  {
   "type": "Feature",
   "geometry": {
    "type": "Point",
    "coordinates": [
     14.11396,
     46.3688
    ]
   },
   "properties": {
    "id": "straza_bled",
    "name": "Straža Bled Cableway",
    "name_sl": "Žičnica Straža Bled",
    "sector": "Cableways and lifts",
    "sector_key": "cable",
    "evidence": "ZAG work documented",
    "evidence_key": "doc",
    "role": "Periodical technical inspections, and special inspections of sub-systems and safety devices",
    "years": "2012",
    "client": "Infrastruktura Bled d.o.o.",
    "location": "Bled",
    "region": "Gorenjska",
    "region_code": "SI042",
    "built": "",
    "position_accuracy": "Settlement centre, approximate",
    "description": "Periodical technical inspections, and special inspections of sub-systems and safety devices.\n\nYears: 2012\nClient: Infrastruktura Bled d.o.o.\nSector: Cableways and lifts\nLocation: Bled\nPosition: Settlement centre, approximate",
    "_umap_options": {
     "color": "#0E8F8F",
     "fillColor": "#0E8F8F",
     "weight": 2,
     "opacity": 1,
     "fillOpacity": 1,
     "iconClass": "Circle"
    }
   }
  },
  {
   "type": "Feature",
   "geometry": {
    "type": "Point",
    "coordinates": [
     13.71314,
     46.4965
    ]
   },
   "properties": {
    "id": "planica_z",
    "name": "Planica Cableway",
    "name_sl": "Žičnica Planica",
    "sector": "Cableways and lifts",
    "sector_key": "cable",
    "evidence": "ZAG work documented",
    "evidence_key": "doc",
    "role": "Periodical technical inspections of cableway installations",
    "years": "",
    "client": "Zavod za šport RS Planica",
    "location": "Rateče, Kranjska Gora",
    "region": "Gorenjska",
    "region_code": "SI042",
    "built": "",
    "position_accuracy": "Settlement centre, approximate",
    "description": "Periodical technical inspections of cableway installations.\n\nClient: Zavod za šport RS Planica\nSector: Cableways and lifts\nLocation: Rateče, Kranjska Gora\nPosition: Settlement centre, approximate",
    "_umap_options": {
     "color": "#0E8F8F",
     "fillColor": "#0E8F8F",
     "weight": 2,
     "opacity": 1,
     "fillOpacity": 1,
     "iconClass": "Circle"
    }
   }
  },
  {
   "type": "Feature",
   "geometry": {
    "type": "Point",
    "coordinates": [
     13.71314,
     46.4965
    ]
   },
   "properties": {
    "id": "ratece_cable",
    "name": "Rateče Cableway Installations",
    "name_sl": "Žičniške naprave Rateče",
    "sector": "Cableways and lifts",
    "sector_key": "cable",
    "evidence": "ZAG work documented",
    "evidence_key": "doc",
    "role": "Special inspections of sub-systems and safety devices",
    "years": "2012",
    "client": "Smuk d.o.o.",
    "location": "Rateče, Kranjska Gora",
    "region": "Gorenjska",
    "region_code": "SI042",
    "built": "",
    "position_accuracy": "Settlement centre, approximate",
    "description": "Special inspections of sub-systems and safety devices.\n\nYears: 2012\nClient: Smuk d.o.o.\nSector: Cableways and lifts\nLocation: Rateče, Kranjska Gora\nPosition: Settlement centre, approximate",
    "_umap_options": {
     "color": "#0E8F8F",
     "fillColor": "#0E8F8F",
     "weight": 2,
     "opacity": 1,
     "fillOpacity": 1,
     "iconClass": "Circle"
    }
   }
  },
  {
   "type": "Feature",
   "geometry": {
    "type": "Point",
    "coordinates": [
     13.66857,
     45.95914
    ]
   },
   "properties": {
    "id": "rtp_gorica",
    "name": "RTP Gorica Substation",
    "name_sl": "RTP 110/20/10 kV Gorica",
    "sector": "Buildings and structures",
    "sector_key": "build",
    "evidence": "ZAG work documented",
    "evidence_key": "doc",
    "role": "Inspection of the quality of the steel structures of the TR-1 substation",
    "years": "2006, 2012",
    "client": "ELEKTRO PRIMORSKA d.d.",
    "location": "Kromberk, Nova Gorica",
    "region": "Goriška",
    "region_code": "SI043",
    "built": "",
    "position_accuracy": "Settlement centre, approximate",
    "description": "Inspection of the quality of the steel structures of the TR-1 substation.\n\nYears: 2006, 2012\nClient: ELEKTRO PRIMORSKA d.d.\nSector: Buildings and structures\nLocation: Kromberk, Nova Gorica\nPosition: Settlement centre, approximate",
    "_umap_options": {
     "color": "#C77A0E",
     "fillColor": "#C77A0E",
     "weight": 2,
     "opacity": 1,
     "fillOpacity": 1,
     "iconClass": "Circle"
    }
   }
  },
  {
   "type": "Feature",
   "geometry": {
    "type": "Point",
    "coordinates": [
     14.21366,
     45.77585
    ]
   },
   "properties": {
    "id": "pecna_reber",
    "name": "Pečna Reber Broadcasting Tower",
    "name_sl": "Oddajni stolp Pečna reber",
    "sector": "Buildings and structures",
    "sector_key": "build",
    "evidence": "ZAG work documented",
    "evidence_key": "doc",
    "role": "Inspection of the broadcasting tower",
    "years": "2006",
    "client": "Ministry of Defence RS",
    "location": "Postojna",
    "region": "Primorsko-notranjska",
    "region_code": "SI038",
    "built": "",
    "position_accuracy": "Settlement centre, approximate",
    "description": "Inspection of the broadcasting tower.\n\nYears: 2006\nClient: Ministry of Defence RS\nSector: Buildings and structures\nLocation: Postojna\nPosition: Settlement centre, approximate",
    "_umap_options": {
     "color": "#C77A0E",
     "fillColor": "#C77A0E",
     "weight": 2,
     "opacity": 1,
     "fillOpacity": 1,
     "iconClass": "Circle"
    }
   }
  },
  {
   "type": "Feature",
   "geometry": {
    "type": "Point",
    "coordinates": [
     15.19421,
     45.57377
    ]
   },
   "properties": {
    "id": "livarna_crnomelj",
    "name": "Livarna Črnomelj Chimney",
    "name_sl": "Jekleni dimnik, Livarna Črnomelj",
    "sector": "Buildings and structures",
    "sector_key": "build",
    "evidence": "ZAG work documented",
    "evidence_key": "doc",
    "role": "Inspection of the steel chimney at the foundry",
    "years": "2009",
    "client": "Apeling d.o.o.",
    "location": "Črnomelj",
    "region": "Jugovzhodna Slovenija",
    "region_code": "SI037",
    "built": "",
    "position_accuracy": "Settlement centre, approximate",
    "description": "Inspection of the steel chimney at the foundry.\n\nYears: 2009\nClient: Apeling d.o.o.\nSector: Buildings and structures\nLocation: Črnomelj\nPosition: Settlement centre, approximate",
    "_umap_options": {
     "color": "#C77A0E",
     "fillColor": "#C77A0E",
     "weight": 2,
     "opacity": 1,
     "fillOpacity": 1,
     "iconClass": "Circle"
    }
   }
  },
  {
   "type": "Feature",
   "geometry": {
    "type": "Point",
    "coordinates": [
     14.50504,
     46.05237
    ]
   },
   "properties": {
    "id": "sz_masts",
    "name": "Railway Electrification Masts",
    "name_sl": "Drogovi elektrifikacije SŽ",
    "sector": "Buildings and structures",
    "sector_key": "build",
    "evidence": "ZAG work documented",
    "evidence_key": "doc",
    "role": "Analysis of masts after the February 2014 ice storm",
    "years": "2014",
    "client": "SŽ-Infrastruktura, d.o.o.",
    "location": "Ljubljana",
    "region": "Osrednjeslovenska",
    "region_code": "SI041",
    "built": "",
    "position_accuracy": "Settlement centre, approximate",
    "description": "Analysis of masts after the February 2014 ice storm.\n\nYears: 2014\nClient: SŽ-Infrastruktura, d.o.o.\nSector: Buildings and structures\nLocation: Ljubljana\nPosition: Settlement centre, approximate",
    "_umap_options": {
     "color": "#C77A0E",
     "fillColor": "#C77A0E",
     "weight": 2,
     "opacity": 1,
     "fillOpacity": 1,
     "iconClass": "Circle"
    }
   }
  },
  {
   "type": "Feature",
   "geometry": {
    "type": "Point",
    "coordinates": [
     14.85938,
     45.64296
    ]
   },
   "properties": {
    "id": "ss_kocevje",
    "name": "Kočevje Secondary School",
    "name_sl": "Gimnazija in srednja šola Kočevje",
    "sector": "Fire safety",
    "sector_key": "fire",
    "evidence": "ZAG work documented",
    "evidence_key": "doc",
    "role": "Report on the condition of the part of the building exposed to fire",
    "years": "2013",
    "client": "Kočevje High School and Secondary School",
    "location": "Kočevje",
    "region": "Jugovzhodna Slovenija",
    "region_code": "SI037",
    "built": "",
    "position_accuracy": "Settlement centre, approximate",
    "description": "Report on the condition of the part of the building exposed to fire.\n\nYears: 2013\nClient: Kočevje High School and Secondary School\nSector: Fire safety\nLocation: Kočevje\nPosition: Settlement centre, approximate",
    "_umap_options": {
     "color": "#D9453A",
     "fillColor": "#D9453A",
     "weight": 2,
     "opacity": 1,
     "fillOpacity": 1,
     "iconClass": "Circle"
    }
   }
  },
  {
   "type": "Feature",
   "geometry": {
    "type": "Point",
    "coordinates": [
     14.83993,
     45.66948
    ]
   },
   "properties": {
    "id": "os_stara_cerkev",
    "name": "Stara Cerkev Elementary School",
    "name_sl": "Osnovna šola Stara Cerkev",
    "sector": "Fire safety",
    "sector_key": "fire",
    "evidence": "ZAG work documented",
    "evidence_key": "doc",
    "role": "Report on the condition of the part of the building exposed to fire",
    "years": "2013",
    "client": "Municipality of Kočevje",
    "location": "Stara Cerkev, Kočevje",
    "region": "Jugovzhodna Slovenija",
    "region_code": "SI037",
    "built": "",
    "position_accuracy": "Settlement centre, approximate",
    "description": "Report on the condition of the part of the building exposed to fire.\n\nYears: 2013\nClient: Municipality of Kočevje\nSector: Fire safety\nLocation: Stara Cerkev, Kočevje\nPosition: Settlement centre, approximate",
    "_umap_options": {
     "color": "#D9453A",
     "fillColor": "#D9453A",
     "weight": 2,
     "opacity": 1,
     "fillOpacity": 1,
     "iconClass": "Circle"
    }
   }
  },
  {
   "type": "Feature",
   "geometry": {
    "type": "Point",
    "coordinates": [
     15.2637,
     46.23011
    ]
   },
   "properties": {
    "id": "rakuschev_mlin",
    "name": "Rakuschev Mlin",
    "name_sl": "Rakuschev mlin",
    "sector": "Fire safety",
    "sector_key": "fire",
    "evidence": "ZAG work documented",
    "evidence_key": "doc",
    "role": "Report on the condition of the building after exposure to fire",
    "years": "2014",
    "client": "Adriatic Slovenica d.d.",
    "location": "Celje",
    "region": "Savinjska",
    "region_code": "SI034",
    "built": "",
    "position_accuracy": "Municipality centre, approximate",
    "description": "Report on the condition of the building after exposure to fire.\n\nYears: 2014\nClient: Adriatic Slovenica d.d.\nSector: Fire safety\nLocation: Celje\nPosition: Municipality centre, approximate",
    "_umap_options": {
     "color": "#D9453A",
     "fillColor": "#D9453A",
     "weight": 2,
     "opacity": 1,
     "fillOpacity": 1,
     "iconClass": "Circle"
    }
   }
  },
  {
   "type": "Feature",
   "geometry": {
    "type": "Point",
    "coordinates": [
     14.42295,
     46.24378
    ]
   },
   "properties": {
    "id": "p2b3_sencur",
    "name": "P2B3 Commercial Building",
    "name_sl": "Poslovni objekt P2B3",
    "sector": "Fire safety",
    "sector_key": "fire",
    "evidence": "ZAG work documented",
    "evidence_key": "doc",
    "role": "Report on the condition of the building after exposure to fire",
    "years": "2014",
    "client": "Zavarovalnica Triglav d.d.",
    "location": "Šenčur",
    "region": "Gorenjska",
    "region_code": "SI042",
    "built": "",
    "position_accuracy": "Settlement centre, approximate",
    "description": "Report on the condition of the building after exposure to fire.\n\nYears: 2014\nClient: Zavarovalnica Triglav d.d.\nSector: Fire safety\nLocation: Šenčur\nPosition: Settlement centre, approximate",
    "_umap_options": {
     "color": "#D9453A",
     "fillColor": "#D9453A",
     "weight": 2,
     "opacity": 1,
     "fillOpacity": 1,
     "iconClass": "Circle"
    }
   }
  },
  {
   "type": "Feature",
   "geometry": {
    "type": "Point",
    "coordinates": [
     14.63629,
     45.76161
    ]
   },
   "properties": {
    "id": "fibran_sodrazica",
    "name": "Fibran Nord Sodražica",
    "name_sl": "Fibran Nord Sodražica",
    "sector": "Fire safety",
    "sector_key": "fire",
    "evidence": "ZAG work documented",
    "evidence_key": "doc",
    "role": "Report on the condition of the production hall after exposure to fire",
    "years": "2013",
    "client": "Fibran Nord d.o.o.",
    "location": "Sodražica",
    "region": "Jugovzhodna Slovenija",
    "region_code": "SI037",
    "built": "",
    "position_accuracy": "Settlement centre, approximate",
    "description": "Report on the condition of the production hall after exposure to fire.\n\nYears: 2013\nClient: Fibran Nord d.o.o.\nSector: Fire safety\nLocation: Sodražica\nPosition: Settlement centre, approximate",
    "_umap_options": {
     "color": "#D9453A",
     "fillColor": "#D9453A",
     "weight": 2,
     "opacity": 1,
     "fillOpacity": 1,
     "iconClass": "Circle"
    }
   }
  },
  {
   "type": "Feature",
   "geometry": {
    "type": "Point",
    "coordinates": [
     13.55097,
     46.33678
    ]
   },
   "properties": {
    "id": "bovec_quake",
    "name": "Bovec Earthquake Response",
    "name_sl": "Potres v Bovcu",
    "sector": "Earthquake response",
    "sector_key": "quake",
    "evidence": "ZAG work documented",
    "evidence_key": "doc",
    "role": "Effect of the 12 April 1998 earthquake on buildings, people and the environment",
    "years": "1998–2000",
    "client": "Ministry of Science and others",
    "location": "Bovec",
    "region": "Goriška",
    "region_code": "SI043",
    "built": "",
    "position_accuracy": "Settlement centre, approximate",
    "description": "Effect of the 12 April 1998 earthquake on buildings, people and the environment.\n\nYears: 1998–2000\nClient: Ministry of Science and others\nSector: Earthquake response\nLocation: Bovec\nPosition: Settlement centre, approximate",
    "_umap_options": {
     "color": "#B8532A",
     "fillColor": "#B8532A",
     "weight": 2,
     "opacity": 1,
     "fillOpacity": 1,
     "iconClass": "Circle"
    }
   }
  },
  {
   "type": "Feature",
   "geometry": {
    "type": "Point",
    "coordinates": [
     13.57799,
     46.24643
    ]
   },
   "properties": {
    "id": "soca_quake",
    "name": "Upper Soča Valley Earthquake Repairs",
    "name_sl": "Obnova po potresu v Zgornjem Posočju",
    "sector": "Earthquake response",
    "sector_key": "quake",
    "evidence": "ZAG work documented",
    "evidence_key": "doc",
    "role": "Damage analysis, design review and third party surveillance of repair and strengthening",
    "years": "2004 onwards",
    "client": "Ministry of the Environment and Spatial Planning",
    "location": "Kobarid",
    "region": "Goriška",
    "region_code": "SI043",
    "built": "",
    "position_accuracy": "Settlement centre, approximate",
    "description": "Damage analysis, design review and third party surveillance of repair and strengthening.\n\nYears: 2004 onwards\nClient: Ministry of the Environment and Spatial Planning\nSector: Earthquake response\nLocation: Kobarid\nPosition: Settlement centre, approximate",
    "_umap_options": {
     "color": "#B8532A",
     "fillColor": "#B8532A",
     "weight": 2,
     "opacity": 1,
     "fillOpacity": 1,
     "iconClass": "Circle"
    }
   }
  },
  {
   "type": "Feature",
   "geometry": {
    "type": "Point",
    "coordinates": [
     14.50504,
     46.05237
    ]
   },
   "properties": {
    "id": "lj_seismic",
    "name": "Ljubljana Seismic Risk",
    "name_sl": "Potresno tveganje v Ljubljani",
    "sector": "Earthquake response",
    "sector_key": "quake",
    "evidence": "ZAG work documented",
    "evidence_key": "doc",
    "role": "Seismic risk to buildings in the Municipality of Ljubljana",
    "years": "2000–2012",
    "client": "Municipality of Ljubljana",
    "location": "Ljubljana",
    "region": "Osrednjeslovenska",
    "region_code": "SI041",
    "built": "",
    "position_accuracy": "Settlement centre, approximate",
    "description": "Seismic risk to buildings in the Municipality of Ljubljana.\n\nYears: 2000–2012\nClient: Municipality of Ljubljana\nSector: Earthquake response\nLocation: Ljubljana\nPosition: Settlement centre, approximate",
    "_umap_options": {
     "color": "#B8532A",
     "fillColor": "#B8532A",
     "weight": 2,
     "opacity": 1,
     "fillOpacity": 1,
     "iconClass": "Circle"
    }
   }
  },
  {
   "type": "Feature",
   "geometry": {
    "type": "Point",
    "coordinates": [
     14.0221,
     46.00131
    ]
   },
   "properties": {
    "id": "idrija_cherplan",
    "name": "Idrija Seismic Risk, CHERPLAN",
    "name_sl": "Potresno tveganje v Idriji, CHERPLAN",
    "sector": "Earthquake response",
    "sector_key": "quake",
    "evidence": "ZAG work documented",
    "evidence_key": "doc",
    "role": "Assessment of the seismic risk to buildings, within the CHERPLAN project",
    "years": "2013",
    "client": "Municipality of Idrija",
    "location": "Idrija",
    "region": "Goriška",
    "region_code": "SI043",
    "built": "",
    "position_accuracy": "Settlement centre, approximate",
    "description": "Assessment of the seismic risk to buildings, within the CHERPLAN project.\n\nYears: 2013\nClient: Municipality of Idrija\nSector: Earthquake response\nLocation: Idrija\nPosition: Settlement centre, approximate",
    "_umap_options": {
     "color": "#B8532A",
     "fillColor": "#B8532A",
     "weight": 2,
     "opacity": 1,
     "fillOpacity": 1,
     "iconClass": "Circle"
    }
   }
  },
  {
   "type": "Feature",
   "geometry": {
    "type": "Point",
    "coordinates": [
     14.6562,
     45.95512
    ]
   },
   "properties": {
    "id": "grosuplje_most",
    "name": "Grosuplje Bridge",
    "name_sl": "Most v Grosupljem",
    "sector": "Bridges and viaducts",
    "sector_key": "bridge",
    "evidence": "ZAG work documented",
    "evidence_key": "doc",
    "role": "Analysis of the safety of the bridge for traffic loadings",
    "years": "2012",
    "client": "Municipality of Grosuplje",
    "location": "Grosuplje",
    "region": "Osrednjeslovenska",
    "region_code": "SI041",
    "built": "",
    "position_accuracy": "Settlement centre, approximate",
    "description": "Analysis of the safety of the bridge for traffic loadings.\n\nYears: 2012\nClient: Municipality of Grosuplje\nSector: Bridges and viaducts\nLocation: Grosuplje\nPosition: Settlement centre, approximate",
    "_umap_options": {
     "color": "#1273D4",
     "fillColor": "#1273D4",
     "weight": 2,
     "opacity": 1,
     "fillOpacity": 1,
     "iconClass": "Circle"
    }
   }
  },
  {
   "type": "Feature",
   "geometry": {
    "type": "Point",
    "coordinates": [
     15.59788,
     45.8926
    ]
   },
   "properties": {
    "id": "catez_bridge",
    "name": "Čatež Bridge over the Sava",
    "name_sl": "Most čez Savo pri Čatežu",
    "sector": "Bridges and viaducts",
    "sector_key": "bridge",
    "evidence": "ZAG work documented",
    "evidence_key": "doc",
    "role": "Combined earthquake and flood vulnerability assessment",
    "years": "2022–2025",
    "client": "",
    "location": "Čatež ob Savi, Brežice",
    "region": "Posavska",
    "region_code": "SI036",
    "built": "",
    "position_accuracy": "Settlement centre, approximate",
    "description": "Combined earthquake and flood vulnerability assessment.\n\nYears: 2022–2025\nSector: Bridges and viaducts\nLocation: Čatež ob Savi, Brežice\nPosition: Settlement centre, approximate",
    "_umap_options": {
     "color": "#1273D4",
     "fillColor": "#1273D4",
     "weight": 2,
     "opacity": 1,
     "fillOpacity": 1,
     "iconClass": "Circle"
    }
   }
  },
  {
   "type": "Feature",
   "geometry": {
    "type": "Point",
    "coordinates": [
     14.61083,
     46.22608
    ]
   },
   "properties": {
    "id": "kamnik_bridges",
    "name": "Kamnik Municipal Bridges",
    "name_sl": "Mostovi v Občini Kamnik",
    "sector": "Bridges and viaducts",
    "sector_key": "bridge",
    "evidence": "ZAG work documented",
    "evidence_key": "doc",
    "role": "Assessment of the level of damage to bridges in the municipality",
    "years": "2015",
    "client": "Municipality of Kamnik",
    "location": "Kamnik",
    "region": "Osrednjeslovenska",
    "region_code": "SI041",
    "built": "",
    "position_accuracy": "Settlement centre, approximate",
    "description": "Assessment of the level of damage to bridges in the municipality.\n\nYears: 2015\nClient: Municipality of Kamnik\nSector: Bridges and viaducts\nLocation: Kamnik\nPosition: Settlement centre, approximate",
    "_umap_options": {
     "color": "#1273D4",
     "fillColor": "#1273D4",
     "weight": 2,
     "opacity": 1,
     "fillOpacity": 1,
     "iconClass": "Circle"
    }
   }
  },
  {
   "type": "Feature",
   "geometry": {
    "type": "Point",
    "coordinates": [
     15.64398,
     46.56247
    ]
   },
   "properties": {
    "id": "maribor_pilots",
    "name": "Maribor Circular Economy Pilot Sites",
    "name_sl": "Pilotne lokacije krožnega gospodarstva, Maribor",
    "sector": "Materials and circularity",
    "sector_key": "mat",
    "evidence": "ZAG work documented",
    "evidence_key": "doc",
    "role": "Demonstration of secondary raw materials in urban construction and urban soil",
    "years": "2017–2022",
    "client": "City of Maribor",
    "location": "Maribor",
    "region": "Podravska",
    "region_code": "SI032",
    "built": "",
    "position_accuracy": "Settlement centre, approximate",
    "description": "Demonstration of secondary raw materials in urban construction and urban soil.\n\nYears: 2017–2022\nClient: City of Maribor\nSector: Materials and circularity\nLocation: Maribor\nPosition: Settlement centre, approximate",
    "_umap_options": {
     "color": "#1E9A57",
     "fillColor": "#1E9A57",
     "weight": 2,
     "opacity": 1,
     "fillOpacity": 1,
     "iconClass": "Circle"
    }
   }
  },
  {
   "type": "Feature",
   "geometry": {
    "type": "Point",
    "coordinates": [
     14.06017,
     46.43657
    ]
   },
   "properties": {
    "id": "sij_acroni_pavers",
    "name": "Geopolymer Paving at SIJ Acroni",
    "name_sl": "Geopolimerni tlakovci, SIJ Acroni",
    "sector": "Materials and circularity",
    "sector_key": "mat",
    "evidence": "ZAG work documented",
    "evidence_key": "doc",
    "role": "Demonstration of alkali activated paving blocks, GEORIS project",
    "years": "2024",
    "client": "SIJ Acroni",
    "location": "Jesenice",
    "region": "Gorenjska",
    "region_code": "SI042",
    "built": "2024",
    "position_accuracy": "Settlement centre, approximate",
    "description": "Demonstration of alkali activated paving blocks, GEORIS project.\n\nYears: 2024\nClient: SIJ Acroni\nBuilt: 2024\nSector: Materials and circularity\nLocation: Jesenice\nPosition: Settlement centre, approximate",
    "_umap_options": {
     "color": "#1E9A57",
     "fillColor": "#1E9A57",
     "weight": 2,
     "opacity": 1,
     "fillOpacity": 1,
     "iconClass": "Circle"
    }
   }
  }
 ]
}